NORAD_CAT_ID,OBJECT_NAME,OBJECT_TYPE,EPOCH,MEAN_MOTION,ECCENTRICITY,INCLINATION,RA_OF_ASC_NODE,ARG_OF_PERICENTER,MEAN_ANOMALY,BSTAR,MEAN_MOTION_DOT,MEAN_MOTION_DDOT,TLE_LINE0,TLE_LINE1,TLE_LINE2,SEMIMAJOR_AXIS,PERIOD,APOGEE,PERIGEE,DECAYED
53620.0,STARLINK-4615,PAYLOAD,2023-03-17 17:43:27,15.08833226,0.000126,53.217,77.9634,94.8104,265.3032,0.00047361,7.256e-05,0.0,0 STARLINK-4615,1 53620U 22104AJ  23076.73851724  .00007256  00000-0  47361-3 0  9994,2 53620  53.2170  77.9634 0001260  94.8104 265.3032 15.08833226 31505,6917.901,95.438,540.638,538.894,0.0
53620.0,STARLINK-4615,PAYLOAD,2023-03-18 11:12:41,15.08861809,0.0001277,53.217,74.6915,95.4733,264.6404,0.0010589,0.00016615,0.0,0 STARLINK-4615,1 53620U 22104AJ  23077.46715191  .00016615  00000-0  10589-2 0  9992,2 53620  53.2170  74.6915 0001277  95.4733 264.6404 15.08861809 30933,6917.814,95.436,540.562,538.795,0.0
53620.0,STARLINK-4615,PAYLOAD,2023-03-19 04:41:56,15.08848413,0.0001207,53.2174,71.4206,101.0985,259.0143,0.00026719,3.968e-05,0.0,0 STARLINK-4615,1 53620U 22104AJ  23078.19579194  .00003968  00000-0  26719-3 0  9994,2 53620  53.2174  71.4206 0001207 101.0985 259.0143 15.08848413 31048,6917.855,95.437,540.555,538.885,0.0
53620.0,STARLINK-4615,PAYLOAD,2023-03-19 11:03:28,15.08861976,0.0001221,53.2183,70.2308,94.8383,265.2748,0.00058762,9.082e-05,0.0,0 STARLINK-4615,1 53620U 22104AJ  23078.46074758  .00009082  00000-0  58762-3 0  9996,2 53620  53.2183  70.2308 0001221  94.8383 265.2748 15.08861976 31763,6917.813,95.436,540.523,538.834,0.0
53620.0,STARLINK-4615,PAYLOAD,2023-03-19 15:49:38,15.08839207,0.0001367,53.2177,69.3391,85.1103,275.0045,5.3152e-05,5.58e-06,0.0,0 STARLINK-4615,1 53620U 22104AJ  23078.65947245  .00000558  00000-0  53152-4 0  9995,2 53620  53.2177  69.3391 0001367  85.1103 275.0045 15.08839207 31111,6917.883,95.438,540.693,538.802,0.0
53620.0,STARLINK-4615,PAYLOAD,2023-03-20 09:18:52,15.08846978,0.0001131,53.218,66.0688,89.6571,270.4551,0.00058118,8.975e-05,0.0,0 STARLINK-4615,1 53620U 22104AJ  23079.38811250  .00008975  00000-0  58118-3 0  9999,2 53620  53.2180  66.0688 0001131  89.6571 270.4551 15.08846978 31906,6917.859,95.437,540.506,538.942,0.0
53620.0,STARLINK-4615,PAYLOAD,2023-03-20 15:40:25,15.08837409,0.0001101,53.2172,64.8781,81.8206,278.2911,0.00027678,4.12e-05,0.0,0 STARLINK-4615,1 53620U 22104AJ  23079.65307511  .00004120  00000-0  27678-3 0  9994,2 53620  53.2172  64.8781 0001101  81.8206 278.2911 15.08837409 31942,6917.888,95.438,540.515,538.992,0.0
53620.0,STARLINK-4615,PAYLOAD,2023-03-21 05:58:53,15.08851086,9.91e-05,53.2175,62.2021,98.7176,261.3928,0.00053224,8.195e-05,0.0,0 STARLINK-4615,1 53620U 22104AJ  23080.24923167  .00008195  00000-0  53224-3 0  9994,2 53620  53.2175  62.2021 0000991  98.7176 261.3928 15.08851086 31356,6917.847,95.437,540.397,539.026,0.0
53620.0,STARLINK-4615,PAYLOAD,2023-03-21 09:09:39,15.0885442,8.73e-05,53.2178,61.6071,90.9595,269.1497,0.00074797,0.00011641,0.0,0 STARLINK-4615,1 53620U 22104AJ  23080.38170997  .00011641  00000-0  74797-3 0  9992,2 53620  53.2178  61.6071 0000873  90.9595 269.1497 15.08854420 32055,6917.836,95.437,540.305,539.097,0.0
53620.0,STARLINK-4615,PAYLOAD,2023-03-22 05:49:41,15.08833265,0.0001609,53.2184,57.742,83.8072,276.3104,3.1309e-05,2.1e-06,0.0,0 STARLINK-4615,1 53620U 22104AJ  23081.24283957  .00000210  00000-0  31309-4 0  9992,2 53620  53.2184  57.7420 0001609  83.8072 276.3104 15.08833265 31503,6917.901,95.438,540.879,538.653,0.0
53620.0,STARLINK-4615,PAYLOAD,2023-03-22 10:35:50,15.08847529,0.0001137,53.2176,56.8489,97.6241,262.488,0.00030839,4.625e-05,0.0,0 STARLINK-4615,1 53620U 22104AJ  23081.44155445  .00004625  00000-0  30839-3 0  9994,2 53620  53.2176  56.8489 0001137  97.6241 262.4880 15.08847529 31534,6917.857,95.437,540.509,538.936,0.0
53620.0,STARLINK-4615,PAYLOAD,2023-03-23 04:05:05,15.08840383,0.000124,53.2183,53.5788,93.3186,266.7948,0.00039581,6.017e-05,0.0,0 STARLINK-4615,1 53620U 22104AJ  23082.17019709  .00006017  00000-0  39581-3 0  9997,2 53620  53.2183  53.5788 0001240  93.3186 266.7948 15.08840383 31649,6917.879,95.438,540.602,538.886,0.0
53620.0,STARLINK-4615,PAYLOAD,2023-03-23 05:40:28,15.08844165,0.0001313,53.2179,53.2814,93.062,267.0523,0.00053559,8.247e-05,0.0,0 STARLINK-4615,1 53620U 22104AJ  23082.23643669  .00008247  00000-0  53559-3 0  9990,2 53620  53.2179  53.2814 0001313  93.0620 267.0523 15.08844165 32334,6917.868,95.437,540.641,538.824,0.0
53620.0,STARLINK-4615,PAYLOAD,2023-03-24 03:55:51,15.0889151,0.000119,53.2176,49.1198,96.8547,263.258,0.0018186,0.00028815,0.0,0 STARLINK-4615,1 53620U 22104AJ  23083.16379265  .00028815  00000-0  18186-2 0  9990,2 53620  53.2176  49.1198 0001190  96.8547 263.2580 15.08891510 31798,6917.723,95.434,540.411,538.765,0.0
53620.0,STARLINK-4615,PAYLOAD,2023-03-24 07:06:37,15.08928073,0.0001408,53.2169,48.5237,103.9435,256.1714,0.0043371,0.00069587,0.0,0 STARLINK-4615,1 53620U 22104AJ  23083.29626775  .00069587  00000-0  43371-2 0  9990,2 53620  53.2169  48.5237 0001408 103.9435 256.1714 15.08928073 31813,6917.611,95.432,540.45,538.502,0.0
53620.0,STARLINK-4615,PAYLOAD,2023-03-25 03:46:38,15.08863098,0.0001032,53.218,44.6595,75.0699,285.0407,0.0013119,0.00020666,0.0,0 STARLINK-4615,1 53620U 22104AJ  23084.15738580  .00020666  00000-0  13119-2 0  9996,2 53620  53.2180  44.6595 0001032  75.0699 285.0407 15.08863098 31943,6917.81,95.436,540.389,538.961,0.0
53620.0,STARLINK-4615,PAYLOAD,2023-03-25 06:57:24,15.08866382,0.0001209,53.217,44.0645,78.2859,281.8269,0.001192,0.00018747,0.0,0 STARLINK-4615,1 53620U 22104AJ  23084.28986358  .00018747  00000-0  11920-2 0  9993,2 53620  53.2170  44.0645 0001209  78.2859 281.8269 15.08866382 32648,6917.8,95.436,540.501,538.828,0.0
53620.0,STARLINK-4615,PAYLOAD,2023-03-26 03:37:26,15.08825272,0.0001112,53.2177,40.1995,73.2229,286.8885,0.00090122,0.00014078,0.0,0 STARLINK-4615,1 53620U 22104AJ  23085.15099599  .00014078  00000-0  90122-3 0  9997,2 53620  53.2177  40.1995 0001112  73.2229 286.8885 15.08825272 32090,6917.925,95.438,540.56,539.021,0.0
53620.0,STARLINK-4615,PAYLOAD,2023-03-26 06:48:12,15.0882668,0.0001224,53.2176,39.6034,79.0932,281.0198,0.00082987,0.00012939,0.0,0 STARLINK-4615,1 53620U 22104AJ  23085.28347735  .00012939  00000-0  82987-3 0  9993,2 53620  53.2176  39.6034 0001224  79.0932 281.0198 15.08826680 32790,6917.921,95.438,540.633,538.939,0.0
53620.0,STARLINK-4615,PAYLOAD,2023-03-27 06:38:59,15.08845681,0.0001246,53.2159,35.1438,87.5023,272.6112,0.00098517,0.00015428,0.0,0 STARLINK-4615,1 53620U 22104AJ  23086.27707917  .00015428  00000-0  98517-3 0  9997,2 53620  53.2159  35.1438 0001246  87.5023 272.6112 15.08845681 32265,6917.863,95.437,540.59,538.866,0.0
53620.0,STARLINK-4615,PAYLOAD,2023-03-28 06:29:47,15.08839249,8.57e-05,53.2172,30.6845,92.6648,267.4442,0.00024735,3.651e-05,0.0,0 STARLINK-4615,1 53620U 22104AJ  23087.27068495  .00003651  00000-0  24735-3 0  9995,2 53620  53.2172  30.6845 0000857  92.6648 267.4442 15.08839249 32417,6917.883,95.438,540.341,539.155,0.0
53620.0,STARLINK-4615,PAYLOAD,2023-03-29 06:20:32,15.08890805,0.0001125,53.2176,26.2242,125.936,234.1737,0.0016085,0.0002544,0.0,0 STARLINK-4615,1 53620U 22104AJ  23088.26426780  .00025440  00000-0  16085-2 0  9998,2 53620  53.2176  26.2242 0001125 125.9360 234.1737 15.08890805 32562,6917.725,95.434,540.368,538.812,0.0
53620.0,STARLINK-4615,PAYLOAD,2023-03-30 04:35:57,15.08831983,8.82e-05,53.2166,22.061,143.8337,216.2715,0.0011283,0.00017711,0.0,0 STARLINK-4615,1 53620U 22104AJ  23089.19163854  .00017711  00000-0  11283-2 0  9998,2 53620  53.2166  22.0610 0000882 143.8337 216.2715 15.08831983 32701,6917.905,95.438,540.38,539.16,0.0
53620.0,STARLINK-4615,PAYLOAD,2023-03-30 12:32:53,15.08827781,8.32e-05,53.2165,20.5733,69.3555,290.7526,0.00065762,0.0001019,0.0,0 STARLINK-4615,1 53620U 22104AJ  23089.52284454  .00010190  00000-0  65762-3 0  9991,2 53620  53.2165  20.5733 0000832  69.3555 290.7526 15.08827781 32751,6917.918,95.438,540.358,539.207,0.0
53620.0,STARLINK-4615,PAYLOAD,2023-03-31 04:26:45,15.08862242,0.0001439,53.2176,17.6001,62.4913,297.6226,0.0018805,0.00029785,0.0,0 STARLINK-4615,1 53620U 22104AJ  23090.18524631  .00029785  00000-0  18805-2 0  9994,2 53620  53.2176  17.6001 0001439  62.4913 297.6226 15.08862242 32859,6917.812,95.436,540.673,538.682,0.0
53620.0,STARLINK-4615,PAYLOAD,2023-03-31 18:45:13,15.08850146,9.31e-05,53.2163,14.9243,78.6881,281.4215,0.0010047,0.00015742,0.0,0 STARLINK-4615,1 53620U 22104AJ  23090.78140778  .00015742  00000-0  10047-2 0  9994,2 53620  53.2163  14.9243 0000931  78.6881 281.4215 15.08850146 32941,6917.849,95.437,540.358,539.07,0.0
53620.0,STARLINK-4615,PAYLOAD,2023-04-01 04:17:32,15.088583,0.0001117,53.2174,13.1396,81.9933,278.1186,0.0013265,0.00020897,0.0,0 STARLINK-4615,1 53620U 22104AJ  23091.17884512  .00020897  00000-0  13265-2 0  9991,2 53620  53.2174  13.1396 0001117  81.9933 278.1186 15.08858300 33687,6917.824,95.436,540.462,538.917,0.0
53620.0,STARLINK-4615,PAYLOAD,2023-04-02 00:57:33,15.08839973,0.0001022,53.2172,9.2748,98.2841,261.8267,0.00088695,0.00013856,0.0,0 STARLINK-4615,1 53620U 22104AJ  23092.03997281  .00013856  00000-0  88695-3 0  9992,2 53620  53.2172   9.2748 0001022  98.2841 261.8267 15.08839973 33130,6917.88,95.438,540.452,539.038,0.0
53620.0,STARLINK-4615,PAYLOAD,2023-04-02 21:37:34,15.08850616,0.0001083,53.2188,5.4073,111.1917,248.9191,0.00065949,0.00010226,0.0,0 STARLINK-4615,1 53620U 22104AJ  23092.90109084  .00010226  00000-0  65949-3 0  9999,2 53620  53.2188   5.4073 0001083 111.1917 248.9191 15.08850616 33940,6917.848,95.437,540.462,538.964,0.0
53620.0,STARLINK-4615,PAYLOAD,2023-04-03 03:59:06,15.08867066,0.000116,53.2182,4.2189,108.2667,251.8452,0.0010565,0.00016579,0.0,0 STARLINK-4615,1 53620U 22104AJ  23093.16604615  .00016579  00000-0  10565-2 0  9998,2 53620  53.2182   4.2189 0001160 108.2667 251.8452 15.08867066 33304,6917.798,95.436,540.465,538.86,0.0
